*******************************************************************************
JPL/HORIZONS                 2796 Kron (1980 EC)           2023-Sep-04 11:19:58
Rec #:    2796 (+COV) Soln.date: 2023-Aug-23_02:14:58   # obs: 4031 (1951-2023)
 
IAU76/J2000 helio. ecliptic osc. elements (au, days, deg., period=Julian yrs):
 
  EPOCH=  2458096.5 ! 2017-Dec-09.00 (TDB)         Residual RMS= .22764
   EC= .1111161790891025   QR= 2.350170684222626   TP= 2458622.0494747311
   OM= 158.433139948164    W=  55.49163869341874   IN= 14.00025317919846
   A= 2.643957094206363    MA= 239.5141417843333   ADIST= 2.937743504190101
   PER= 4.29922            N= .229256928           ANGMOM= .027797829
   DAN= 2.45666            DDN= 2.78674            L= 213.1139138
   B= 11.4994018           MOID= 1.37707996        TP= 2019-May-18.5494747311
 
Asteroid physical parameters (km, seconds, rotational period in hours):
   GM= n.a.                RAD= 4.2805             ROTPER= 22.99
   H= 12.31                G= .150                 B-V= n.a.
                           ALBEDO= .290            STYP= n.a.

ASTEROID comments: 
1: soln ref.= JPL#54, OCC=0
2: source=ORB
*******************************************************************************


*******************************************************************************
Ephemeris / API_USER Mon Sep  4 11:19:58 2023 Pasadena, USA      / Horizons
*******************************************************************************
Target body name: 2796 Kron (1980 EC)             {source: JPL#54}
Center body name: Solar System Barycenter (0)     {source: DE441}
Center-site name: BODY CENTER
*******************************************************************************
Start time      : A.D. 2023-Aug-12 00:00:00.0000 TDB
Stop  time      : A.D. 2023-Aug-13 00:00:00.0000 TDB
Step-size       : 2880 minutes
*******************************************************************************
Center geodetic : 0.0, 0.0, 0.0                   {E-lon(deg),Lat(deg),Alt(km)}
Center cylindric: 0.0, 0.0, 0.0                   {E-lon(deg),Dxy(km),Dz(km)}
Center radii    : (undefined)
Small perturbers: Yes                             {source: SB441-N16}
Output units    : KM-S
Calendar mode   : Mixed Julian/Gregorian
Output type     : GEOMETRIC cartesian states
Output format   : 2 (position and velocity)
Reference frame : Ecliptic of J2000.0
*******************************************************************************
Initial IAU76/J2000 heliocentric ecliptic osculating elements (au, days, deg.):
  EPOCH=  2458096.5 ! 2017-Dec-09.00 (TDB)         Residual RMS= .22764        
   EC= .1111161790891025   QR= 2.350170684222626   TP= 2458622.0494747311      
   OM= 158.433139948164    W=  55.49163869341874   IN= 14.00025317919846       
  Equivalent ICRF heliocentric cartesian coordinates (au, au/d):
   X= 3.014799749721984E-01  Y= 2.757909833612507E+00  Z= 4.780319878899785E-01
  VX=-9.874048251449470E-03 VY= 8.115992633323139E-06 VZ= 8.977482209674458E-04
Asteroid physical parameters (km, seconds, rotational period in hours):        
   GM= n.a.                RAD= 4.2805             ROTPER= 22.99               
   H= 12.31                G= .150                 B-V= n.a.                   
                           ALBEDO= .290            STYP= n.a.                  
*******************************************************************************
JDTDB
   X     Y     Z
   VX    VY    VZ
*******************************************************************************
$$SOE
2460168.500000000 = A.D. 2023-Aug-12 00:00:00.0000 TDB 
 X =-3.102807973107160E+08 Y =-1.544153931773397E+08 Z = 6.421648326692484E+07
 VX= 9.761930487711286E+00 VY=-1.775172847154808E+01 VZ= 3.217007452156755E+00
$$EOE
*******************************************************************************
 
TIME

  Barycentric Dynamical Time ("TDB" or T_eph) output was requested. This
continuous coordinate time is equivalent to the relativistic proper time
of a clock at rest in a reference frame co-moving with the solar system
barycenter but outside the system's gravity well. It is the independent
variable in the solar system relativistic equations of motion.

  TDB runs at a uniform rate of one SI second per second and is independent
of irregularities in Earth's rotation.
 
CALENDAR SYSTEM

  Mixed calendar mode was active such that calendar dates after AD 1582-Oct-15
(if any) are in the modern Gregorian system. Dates prior to 1582-Oct-5 (if any)
are in the Julian calendar system, which is automatically extended for dates
prior to its adoption on 45-Jan-1 BC.  The Julian calendar is useful for
matching historical dates. The Gregorian calendar more accurately corresponds
to the Earth's orbital motion and seasons. A "Gregorian-only" calendar mode is
available if such physical events are the primary interest.

REFERENCE FRAME AND COORDINATES

  Ecliptic at the standard reference epoch

    Reference epoch: J2000.0
    X-Y plane: adopted Earth orbital plane at the reference epoch
               Note: IAU76 obliquity of 84381.448 arcseconds wrt ICRF X-Y plane
    X-axis   : ICRF
    Z-axis   : perpendicular to the X-Y plane in the directional (+ or -) sense
               of Earth's north pole at the reference epoch.

  Symbol meaning:

    JDTDB    Julian Day Number, Barycentric Dynamical Time
      X      X-component of position vector (km)
      Y      Y-component of position vector (km)
      Z      Z-component of position vector (km)
      VX     X-component of velocity vector (km/sec)                           
      VY     Y-component of velocity vector (km/sec)                           
      VZ     Z-component of velocity vector (km/sec)                           

ABERRATIONS AND CORRECTIONS

 Geometric state vectors have NO corrections or aberrations applied.

Computations by ...

    Solar System Dynamics Group, Horizons On-Line Ephemeris System
    4800 Oak Grove Drive, Jet Propulsion Laboratory
    Pasadena, CA  91109   USA

    General site: https://ssd.jpl.nasa.gov/
    Mailing list: https://ssd.jpl.nasa.gov/email_list.html
    System news : https://ssd.jpl.nasa.gov/horizons/news.html
    User Guide  : https://ssd.jpl.nasa.gov/horizons/manual.html
    Connect     : browser        https://ssd.jpl.nasa.gov/horizons/app.html#/x
                  API            https://ssd-api.jpl.nasa.gov/doc/horizons.html
                  command-line   telnet ssd.jpl.nasa.gov 6775
                  e-mail/batch   https://ssd.jpl.nasa.gov/ftp/ssd/hrzn_batch.txt
                  scripts        https://ssd.jpl.nasa.gov/ftp/ssd/SCRIPTS
    Author      : Jon.D.Giorgini@jpl.nasa.gov
*******************************************************************************
